{
  "links" : {
    "next" : "https://api.nasa.gov/neo/rest/v1/feed?start_date=2014-06-16&end_date=2014-06-16&detailed=true&api_key=t0TVs3DtDT2H8Oy2Zy8m2eVrNsAVKAexjcZXUckd",
    "prev" : "https://api.nasa.gov/neo/rest/v1/feed?start_date=2014-06-14&end_date=2014-06-14&detailed=true&api_key=t0TVs3DtDT2H8Oy2Zy8m2eVrNsAVKAexjcZXUckd",
    "self" : "https://api.nasa.gov/neo/rest/v1/feed?start_date=2014-06-15&end_date=2014-06-15&detailed=true&api_key=t0TVs3DtDT2H8Oy2Zy8m2eVrNsAVKAexjcZXUckd"
  },
  "element_count" : 6,
  "near_earth_objects" : {
    "2014-06-15" : [ {
      "links" : {
        "self" : "https://api.nasa.gov/neo/rest/v1/neo/3674619?api_key=t0TVs3DtDT2H8Oy2Zy8m2eVrNsAVKAexjcZXUckd"
      },
      "neo_reference_id" : "3674619",
      "name" : "(2014 NK52)",
      "nasa_jpl_url" : "http://ssd.jpl.nasa.gov/sbdb.cgi?sstr=3674619",
      "absolute_magnitude_h" : 21.3,
      "estimated_diameter" : {
        "kilometers" : {
          "estimated_diameter_min" : 0.1460679643,
          "estimated_diameter_max" : 0.3266178974
        },
        "meters" : {
          "estimated_diameter_min" : 146.0679642714,
          "estimated_diameter_max" : 326.6178974458
        },
        "miles" : {
          "estimated_diameter_min" : 0.090762397,
          "estimated_diameter_max" : 0.2029508896
        },
        "feet" : {
          "estimated_diameter_min" : 479.2256199,
          "estimated_diameter_max" : 1071.581062656
        }
      },
      "is_potentially_hazardous_asteroid" : true,
      "close_approach_data" : [ {
        "close_approach_date" : "2014-06-15",
        "epoch_date_close_approach" : 1402815600000,
        "relative_velocity" : {
          "kilometers_per_second" : "19.4989708294",
          "kilometers_per_hour" : "70196.2949857435",
          "miles_per_hour" : "43617.2478482249"
        },
        "miss_distance" : {
          "astronomical" : "0.3098922934",
          "lunar" : "120.5481033325",
          "kilometers" : "46359228",
          "miles" : "28806288"
        },
        "orbiting_body" : "Earth"
      } ],
      "orbital_data" : {
        "orbit_id" : "8",
        "orbit_determination_date" : "2017-08-10 06:18:11",
        "orbit_uncertainty" : "7",
        "minimum_orbit_intersection" : ".0182031",
        "jupiter_tisserand_invariant" : "3.073",
        "epoch_osculation" : "2458000.5",
        "eccentricity" : ".8385334492128832",
        "semi_major_axis" : "2.200512216974381",
        "inclination" : "2.544707376716897",
        "ascending_node_longitude" : "256.305380655254",
        "orbital_period" : "1192.296043921183",
        "perihelion_distance" : ".3553091176397649",
        "perihelion_argument" : "268.603457829181",
        "aphelion_distance" : "4.045715316308998",
        "perihelion_time" : "2457971.395150237458",
        "mean_anomaly" : "8.787872750173907",
        "mean_motion" : ".3019384336930651",
        "equinox" : "J2000"
      }
    }, {
      "links" : {
        "self" : "https://api.nasa.gov/neo/rest/v1/neo/3471589?api_key=t0TVs3DtDT2H8Oy2Zy8m2eVrNsAVKAexjcZXUckd"
      },
      "neo_reference_id" : "3471589",
      "name" : "(2009 UG)",
      "nasa_jpl_url" : "http://ssd.jpl.nasa.gov/sbdb.cgi?sstr=3471589",
      "absolute_magnitude_h" : 23.4,
      "estimated_diameter" : {
        "kilometers" : {
          "estimated_diameter_min" : 0.0555334912,
          "estimated_diameter_max" : 0.1241766613
        },
        "meters" : {
          "estimated_diameter_min" : 55.5334911581,
          "estimated_diameter_max" : 124.1766612574
        },
        "miles" : {
          "estimated_diameter_min" : 0.0345069009,
          "estimated_diameter_max" : 0.0771597762
        },
        "feet" : {
          "estimated_diameter_min" : 182.1964991311,
          "estimated_diameter_max" : 407.4037573197
        }
      },
      "is_potentially_hazardous_asteroid" : false,
      "close_approach_data" : [ {
        "close_approach_date" : "2014-06-15",
        "epoch_date_close_approach" : 1402815600000,
        "relative_velocity" : {
          "kilometers_per_second" : "15.7284968271",
          "kilometers_per_hour" : "56622.5885776082",
          "miles_per_hour" : "35183.07455257"
        },
        "miss_distance" : {
          "astronomical" : "0.4722713285",
          "lunar" : "183.7135467529",
          "kilometers" : "70650784",
          "miles" : "43900364"
        },
        "orbiting_body" : "Earth"
      } ],
      "orbital_data" : {
        "orbit_id" : "21",
        "orbit_determination_date" : "2017-04-06 08:59:34",
        "orbit_uncertainty" : "0",
        "minimum_orbit_intersection" : ".0123069",
        "jupiter_tisserand_invariant" : "7.319",
        "epoch_osculation" : "2458000.5",
        "eccentricity" : ".375079880278455",
        "semi_major_axis" : ".7883832172129693",
        "inclination" : "4.96336595971963",
        "ascending_node_longitude" : "13.85375438075367",
        "orbital_period" : "255.6845480370066",
        "perihelion_distance" : ".4926765344871857",
        "perihelion_argument" : "201.8543093095849",
        "aphelion_distance" : "1.084089899938753",
        "perihelion_time" : "2458084.096602433574",
        "mean_anomaly" : "242.2972404584618",
        "mean_motion" : "1.407984967272622",
        "equinox" : "J2000"
      }
    }, {
      "links" : {
        "self" : "https://api.nasa.gov/neo/rest/v1/neo/3772761?api_key=t0TVs3DtDT2H8Oy2Zy8m2eVrNsAVKAexjcZXUckd"
      },
      "neo_reference_id" : "3772761",
      "name" : "(2017 FX90)",
      "nasa_jpl_url" : "http://ssd.jpl.nasa.gov/sbdb.cgi?sstr=3772761",
      "absolute_magnitude_h" : 26.345,
      "estimated_diameter" : {
        "kilometers" : {
          "estimated_diameter_min" : 0.0143072108,
          "estimated_diameter_max" : 0.031991896
        },
        "meters" : {
          "estimated_diameter_min" : 14.3072108193,
          "estimated_diameter_max" : 31.9918959603
        },
        "miles" : {
          "estimated_diameter_min" : 0.0088900859,
          "estimated_diameter_max" : 0.0198788364
        },
        "feet" : {
          "estimated_diameter_min" : 46.9396695443,
          "estimated_diameter_max" : 104.9602919425
        }
      },
      "is_potentially_hazardous_asteroid" : false,
      "close_approach_data" : [ {
        "close_approach_date" : "2014-06-15",
        "epoch_date_close_approach" : 1402815600000,
        "relative_velocity" : {
          "kilometers_per_second" : "10.5783584997",
          "kilometers_per_hour" : "38082.0905989412",
          "miles_per_hour" : "23662.7301279921"
        },
        "miss_distance" : {
          "astronomical" : "0.1605921487",
          "lunar" : "62.4703483582",
          "kilometers" : "24024244",
          "miles" : "14927973"
        },
        "orbiting_body" : "Earth"
      } ],
      "orbital_data" : {
        "orbit_id" : "12",
        "orbit_determination_date" : "2017-07-19 15:46:41",
        "orbit_uncertainty" : "5",
        "minimum_orbit_intersection" : ".00154304",
        "jupiter_tisserand_invariant" : "3.590",
        "epoch_osculation" : "2458000.5",
        "eccentricity" : ".5468781036911147",
        "semi_major_axis" : "2.034880990110421",
        "inclination" : "9.490469633482448",
        "ascending_node_longitude" : "12.5768496927826",
        "orbital_period" : "1060.246747354419",
        "perihelion_distance" : ".9220491330017363",
        "perihelion_argument" : "219.0518425331808",
        "aphelion_distance" : "3.147712847219107",
        "perihelion_time" : "2457875.349232585625",
        "mean_anomaly" : "42.4941424075073",
        "mean_motion" : ".3395436023720799",
        "equinox" : "J2000"
      }
    } ]
  }
}